[{"OBJECT_NAME":"ONEWEB-0639","OBJECT_ID":"2023-029H","EPOCH":"2026-03-09T17:05:09.750624","MEAN_MOTION":13.19724682,"ECCENTRICITY":0.00022777,"INCLINATION":87.9226,"RA_OF_ASC_NODE":324.7977,"ARG_OF_PERICENTER":105.3247,"MEAN_ANOMALY":254.8138,"EPHEMERIS_TYPE":0,"CLASSIFICATION_TYPE":"U","NORAD_CAT_ID":55803,"ELEMENT_SET_NO":999,"REV_AT_EPOCH":14578,"BSTAR":0.00027256917,"MEAN_MOTION_DOT":1.22e-6,"MEAN_MOTION_DDOT":0},{"OBJECT_NAME":"SL-8 R\/B","OBJECT_ID":"1968-106B","EPOCH":"2026-03-09T16:20:09.900096","MEAN_MOTION":13.19131001,"ECCENTRICITY":0.00341644,"INCLINATION":74.0517,"RA_OF_ASC_NODE":137.3134,"ARG_OF_PERICENTER":143.4036,"MEAN_ANOMALY":333.6648,"EPHEMERIS_TYPE":0,"CLASSIFICATION_TYPE":"U","NORAD_CAT_ID":3577,"ELEMENT_SET_NO":999,"REV_AT_EPOCH":75627,"BSTAR":6.8339382e-5,"MEAN_MOTION_DOT":8.0e-8,"MEAN_MOTION_DDOT":0}]
